ONEWEB-0358             
1 49284U 21090F   26063.10574390  .00000072  00000+0  14539-3 0  9998
2 49284  87.9180 295.4177 0001575  79.4281 280.7030 13.20772391216684
ONEWEB-0359             
1 49285U 21090G   26063.10258380  .00000072  00000+0  14619-3 0  9996
2 49285  87.9185 295.4147 0001778  76.7885 283.3446 13.20770589216667
ONEWEB-0360             
1 49286U 21090H   26063.09310292  .00000101  00000+0  21706-3 0  9994
2 49286  87.9179 295.4239 0001724  79.9598 280.1730 13.20772763215970
ONEWEB-0361             
1 49287U 21090J   26063.14992697  .00000047  00000+0  83637-4 0  9997
2 49287  87.9183 295.4095 0001465  79.6733 280.4565 13.20773162216431
ONEWEB-0362             
1 49288U 21090K   26063.17096837  .00000099  00000+0  21599-3 0  9997
2 49288  87.9235 325.8997 0001919  83.3678 276.7673 13.19726119213065
ONEWEB-0363             
1 49289U 21090L   26063.08996698  .00000031  00000+0  44976-4 0  9993
2 49289  87.9181 295.4224 0001341  72.7347 287.3933 13.20773534216431
ONEWEB-0364             
1 49290U 21090M   26063.12783873  .00000118  00000+0  25826-3 0  9997
2 49290  87.9169 295.4302 0001529  80.6579 279.4727 13.20772512217573
ONEWEB-0365             
1 49291U 21090N   26063.10461903 -.00001105  00000+0 -27920-2 0  9998
2 49291  87.9247 325.8919 0001723  81.5262 278.6066 13.19728925212566
ONEWEB-0366             
1 49292U 21090P   26063.08886835 -.00000062  00000+0 -20238-3 0  9998
2 49292  87.8991 310.6821 0001632  78.6672 281.4641 13.14502379213758
ONEWEB-0367             
1 49293U 21090Q   26063.08837288  .00000076  00000+0  15487-3 0  9990
2 49293  87.9184 295.4228 0001754  86.9631 273.1703 13.20773371215957
ONEWEB-0368             
1 49294U 21090R   26063.13729920  .00000115  00000+0  24985-3 0  9997
2 49294  87.9172 295.4354 0000891 101.9048 258.2185 13.20773140217118
ONEWEB-0369             
1 49295U 21090S   26063.17570745  .00000036  00000+0  58270-4 0  9998
2 49295  87.9238 325.8962 0001621  81.0519 279.0797 13.19725651212564
ONEWEB-0370             
1 49296U 21090T   26063.09785294  .00000033  00000+0  48544-4 0  9997
2 49296  87.9180 295.4222 0001901  82.1462 277.9887 13.20771702215999
ONEWEB-0371             
1 49297U 21090U   26063.10778867  .00000031  00000+0  45470-4 0  9991
2 49297  87.9240 325.8983 0001781  80.4310 279.7024 13.19725667212591
ONEWEB-0372             
1 49298U 21090V   26063.08667090  .00000086  00000+0  18012-3 0  9995
2 49298  87.9182 295.4248 0001569  88.0644 272.0669 13.20771724215963
ONEWEB-0373             
1 49299U 21090W   26063.11362369  .00000119  00000+0  26080-3 0  9992
2 49299  87.9170 295.4254 0001634  79.9317 280.2000 13.20769960217159
ONEWEB-0374             
1 49300U 21090X   26063.15229838  .00000093  00000+0  21645-3 0  9995
2 49300  87.8998 310.6531 0001183  65.5295 294.5958 13.14501556213763
