[{"OBJECT_NAME":"ONEWEB-0358","OBJECT_ID":"2021-090F","EPOCH":"2026-03-04T02:32:16.272960","MEAN_MOTION":13.20772391,"ECCENTRICITY":0.0001575,"INCLINATION":87.918,"RA_OF_ASC_NODE":295.4177,"ARG_OF_PERICENTER":79.4281,"MEAN_ANOMALY":280.703,"EPHEMERIS_TYPE":0,"CLASSIFICATION_TYPE":"U","NORAD_CAT_ID":49284,"ELEMENT_SET_NO":999,"REV_AT_EPOCH":21668,"BSTAR":0.00014539,"MEAN_MOTION_DOT":7.2e-7,"MEAN_MOTION_DDOT":0},{"OBJECT_NAME":"ONEWEB-0359","OBJECT_ID":"2021-090G","EPOCH":"2026-03-04T02:27:43.240320","MEAN_MOTION":13.20770589,"ECCENTRICITY":0.0001778,"INCLINATION":87.9185,"RA_OF_ASC_NODE":295.4147,"ARG_OF_PERICENTER":76.7885,"MEAN_ANOMALY":283.3446,"EPHEMERIS_TYPE":0,"CLASSIFICATION_TYPE":"U","NORAD_CAT_ID":49285,"ELEMENT_SET_NO":999,"REV_AT_EPOCH":21666,"BSTAR":0.00014619,"MEAN_MOTION_DOT":7.2e-7,"MEAN_MOTION_DDOT":0},{"OBJECT_NAME":"ONEWEB-0360","OBJECT_ID":"2021-090H","EPOCH":"2026-03-04T02:14:04.092288","MEAN_MOTION":13.20772763,"ECCENTRICITY":0.0001724,"INCLINATION":87.9179,"RA_OF_ASC_NODE":295.4239,"ARG_OF_PERICENTER":79.9598,"MEAN_ANOMALY":280.173,"EPHEMERIS_TYPE":0,"CLASSIFICATION_TYPE":"U","NORAD_CAT_ID":49286,"ELEMENT_SET_NO":999,"REV_AT_EPOCH":21597,"BSTAR":0.00021706,"MEAN_MOTION_DOT":1.01e-6,"MEAN_MOTION_DDOT":0},{"OBJECT_NAME":"ONEWEB-0361","OBJECT_ID":"2021-090J","EPOCH":"2026-03-04T03:35:53.690208","MEAN_MOTION":13.20773162,"ECCENTRICITY":0.0001465,"INCLINATION":87.9183,"RA_OF_ASC_NODE":295.4095,"ARG_OF_PERICENTER":79.6733,"MEAN_ANOMALY":280.4565,"EPHEMERIS_TYPE":0,"CLASSIFICATION_TYPE":"U","NORAD_CAT_ID":49287,"ELEMENT_SET_NO":999,"REV_AT_EPOCH":21643,"BSTAR":8.3637e-5,"MEAN_MOTION_DOT":4.7e-7,"MEAN_MOTION_DDOT":0},{"OBJECT_NAME":"ONEWEB-0362","OBJECT_ID":"2021-090K","EPOCH":"2026-03-04T04:06:11.667168","MEAN_MOTION":13.19726119,"ECCENTRICITY":0.0001919,"INCLINATION":87.9235,"RA_OF_ASC_NODE":325.8997,"ARG_OF_PERICENTER":83.3678,"MEAN_ANOMALY":276.7673,"EPHEMERIS_TYPE":0,"CLASSIFICATION_TYPE":"U","NORAD_CAT_ID":49288,"ELEMENT_SET_NO":999,"REV_AT_EPOCH":21306,"BSTAR":0.00021599,"MEAN_MOTION_DOT":9.9e-7,"MEAN_MOTION_DDOT":0},{"OBJECT_NAME":"ONEWEB-0363","OBJECT_ID":"2021-090L","EPOCH":"2026-03-04T02:09:33.147072","MEAN_MOTION":13.20773534,"ECCENTRICITY":0.0001341,"INCLINATION":87.9181,"RA_OF_ASC_NODE":295.4224,"ARG_OF_PERICENTER":72.7347,"MEAN_ANOMALY":287.3933,"EPHEMERIS_TYPE":0,"CLASSIFICATION_TYPE":"U","NORAD_CAT_ID":49289,"ELEMENT_SET_NO":999,"REV_AT_EPOCH":21643,"BSTAR":4.4976e-5,"MEAN_MOTION_DOT":3.1e-7,"MEAN_MOTION_DDOT":0},{"OBJECT_NAME":"ONEWEB-0364","OBJECT_ID":"2021-090M","EPOCH":"2026-03-04T03:04:05.266272","MEAN_MOTION":13.20772512,"ECCENTRICITY":0.0001529,"INCLINATION":87.9169,"RA_OF_ASC_NODE":295.4302,"ARG_OF_PERICENTER":80.6579,"MEAN_ANOMALY":279.4727,"EPHEMERIS_TYPE":0,"CLASSIFICATION_TYPE":"U","NORAD_CAT_ID":49290,"ELEMENT_SET_NO":999,"REV_AT_EPOCH":21757,"BSTAR":0.00025826,"MEAN_MOTION_DOT":1.18e-6,"MEAN_MOTION_DDOT":0},{"OBJECT_NAME":"ONEWEB-0365","OBJECT_ID":"2021-090N","EPOCH":"2026-03-04T02:30:39.084192","MEAN_MOTION":13.19728925,"ECCENTRICITY":0.0001723,"INCLINATION":87.9247,"RA_OF_ASC_NODE":325.8919,"ARG_OF_PERICENTER":81.5262,"MEAN_ANOMALY":278.6066,"EPHEMERIS_TYPE":0,"CLASSIFICATION_TYPE":"U","NORAD_CAT_ID":49291,"ELEMENT_SET_NO":999,"REV_AT_EPOCH":21256,"BSTAR":-0.002792,"MEAN_MOTION_DOT":-1.105e-5,"MEAN_MOTION_DDOT":0},{"OBJECT_NAME":"ONEWEB-0366","OBJECT_ID":"2021-090P","EPOCH":"2026-03-04T02:07:58.225440","MEAN_MOTION":13.14502379,"ECCENTRICITY":0.0001632,"INCLINATION":87.8991,"RA_OF_ASC_NODE":310.6821,"ARG_OF_PERICENTER":78.6672,"MEAN_ANOMALY":281.4641,"EPHEMERIS_TYPE":0,"CLASSIFICATION_TYPE":"U","NORAD_CAT_ID":49292,"ELEMENT_SET_NO":999,"REV_AT_EPOCH":21375,"BSTAR":-0.00020238,"MEAN_MOTION_DOT":-6.2e-7,"MEAN_MOTION_DDOT":0},{"OBJECT_NAME":"ONEWEB-0367","OBJECT_ID":"2021-090Q","EPOCH":"2026-03-04T02:07:15.416832","MEAN_MOTION":13.20773371,"ECCENTRICITY":0.0001754,"INCLINATION":87.9184,"RA_OF_ASC_NODE":295.4228,"ARG_OF_PERICENTER":86.9631,"MEAN_ANOMALY":273.1703,"EPHEMERIS_TYPE":0,"CLASSIFICATION_TYPE":"U","NORAD_CAT_ID":49293,"ELEMENT_SET_NO":999,"REV_AT_EPOCH":21595,"BSTAR":0.00015487,"MEAN_MOTION_DOT":7.6e-7,"MEAN_MOTION_DDOT":0},{"OBJECT_NAME":"ONEWEB-0368","OBJECT_ID":"2021-090R","EPOCH":"2026-03-04T03:17:42.650880","MEAN_MOTION":13.2077314,"ECCENTRICITY":8.91e-5,"INCLINATION":87.9172,"RA_OF_ASC_NODE":295.4354,"ARG_OF_PERICENTER":101.9048,"MEAN_ANOMALY":258.2185,"EPHEMERIS_TYPE":0,"CLASSIFICATION_TYPE":"U","NORAD_CAT_ID":49294,"ELEMENT_SET_NO":999,"REV_AT_EPOCH":21711,"BSTAR":0.00024985,"MEAN_MOTION_DOT":1.15e-6,"MEAN_MOTION_DDOT":0},{"OBJECT_NAME":"ONEWEB-0369","OBJECT_ID":"2021-090S","EPOCH":"2026-03-04T04:13:01.123680","MEAN_MOTION":13.19725651,"ECCENTRICITY":0.0001621,"INCLINATION":87.9238,"RA_OF_ASC_NODE":325.8962,"ARG_OF_PERICENTER":81.0519,"MEAN_ANOMALY":279.0797,"EPHEMERIS_TYPE":0,"CLASSIFICATION_TYPE":"U","NORAD_CAT_ID":49295,"ELEMENT_SET_NO":999,"REV_AT_EPOCH":21256,"BSTAR":5.827e-5,"MEAN_MOTION_DOT":3.6e-7,"MEAN_MOTION_DDOT":0},{"OBJECT_NAME":"ONEWEB-0370","OBJECT_ID":"2021-090T","EPOCH":"2026-03-04T02:20:54.494016","MEAN_MOTION":13.20771702,"ECCENTRICITY":0.0001901,"INCLINATION":87.918,"RA_OF_ASC_NODE":295.4222,"ARG_OF_PERICENTER":82.1462,"MEAN_ANOMALY":277.9887,"EPHEMERIS_TYPE":0,"CLASSIFICATION_TYPE":"U","NORAD_CAT_ID":49296,"ELEMENT_SET_NO":999,"REV_AT_EPOCH":21599,"BSTAR":4.8544e-5,"MEAN_MOTION_DOT":3.3e-7,"MEAN_MOTION_DDOT":0},{"OBJECT_NAME":"ONEWEB-0371","OBJECT_ID":"2021-090U","EPOCH":"2026-03-04T02:35:12.941088","MEAN_MOTION":13.19725667,"ECCENTRICITY":0.0001781,"INCLINATION":87.924,"RA_OF_ASC_NODE":325.8983,"ARG_OF_PERICENTER":80.431,"MEAN_ANOMALY":279.7024,"EPHEMERIS_TYPE":0,"CLASSIFICATION_TYPE":"U","NORAD_CAT_ID":49297,"ELEMENT_SET_NO":999,"REV_AT_EPOCH":21259,"BSTAR":4.547e-5,"MEAN_MOTION_DOT":3.1e-7,"MEAN_MOTION_DDOT":0},{"OBJECT_NAME":"ONEWEB-0372","OBJECT_ID":"2021-090V","EPOCH":"2026-03-04T02:04:48.365760","MEAN_MOTION":13.20771724,"ECCENTRICITY":0.0001569,"INCLINATION":87.9182,"RA_OF_ASC_NODE":295.4248,"ARG_OF_PERICENTER":88.0644,"MEAN_ANOMALY":272.0669,"EPHEMERIS_TYPE":0,"CLASSIFICATION_TYPE":"U","NORAD_CAT_ID":49298,"ELEMENT_SET_NO":999,"REV_AT_EPOCH":21596,"BSTAR":0.00018012,"MEAN_MOTION_DOT":8.6e-7,"MEAN_MOTION_DDOT":0},{"OBJECT_NAME":"ONEWEB-0373","OBJECT_ID":"2021-090W","EPOCH":"2026-03-04T02:43:37.086816","MEAN_MOTION":13.2076996,"ECCENTRICITY":0.0001634,"INCLINATION":87.917,"RA_OF_ASC_NODE":295.4254,"ARG_OF_PERICENTER":79.9317,"MEAN_ANOMALY":280.2,"EPHEMERIS_TYPE":0,"CLASSIFICATION_TYPE":"U","NORAD_CAT_ID":49299,"ELEMENT_SET_NO":999,"REV_AT_EPOCH":21715,"BSTAR":0.0002608,"MEAN_MOTION_DOT":1.19e-6,"MEAN_MOTION_DDOT":0},{"OBJECT_NAME":"ONEWEB-0374","OBJECT_ID":"2021-090X","EPOCH":"2026-03-04T03:39:18.580032","MEAN_MOTION":13.14501556,"ECCENTRICITY":0.0001183,"INCLINATION":87.8998,"RA_OF_ASC_NODE":310.6531,"ARG_OF_PERICENTER":65.5295,"MEAN_ANOMALY":294.5958,"EPHEMERIS_TYPE":0,"CLASSIFICATION_TYPE":"U","NORAD_CAT_ID":49300,"ELEMENT_SET_NO":999,"REV_AT_EPOCH":21376,"BSTAR":0.00021645,"MEAN_MOTION_DOT":9.3e-7,"MEAN_MOTION_DDOT":0}]
